CCSDS_OMM_VERS,COMMENT,CREATION_DATE,ORIGINATOR,OBJECT_NAME,OBJECT_ID,CENTER_NAME,REF_FRAME,TIME_SYSTEM,MEAN_ELEMENT_THEORY,EPOCH,MEAN_MOTION,ECCENTRICITY,INCLINATION,RA_OF_ASC_NODE,ARG_OF_PERICENTER,MEAN_ANOMALY,EPHEMERIS_TYPE,CLASSIFICATION_TYPE,NORAD_CAT_ID,ELEMENT_SET_NO,REV_AT_EPOCH,BSTAR,MEAN_MOTION_DOT,MEAN_MOTION_DDOT,SEMIMAJOR_AXIS,PERIOD,APOAPSIS,PERIAPSIS,OBJECT_TYPE,RCS_SIZE,COUNTRY_CODE,LAUNCH_DATE,SITE,DECAY_DATE,DECAYED,FILE,GP_ID,TLE_LINE0,TLE_LINE1,TLE_LINE2,height_km,latitude,longitude,velocity_kms,id
2.0,GENERATED VIA SPACE-TRACK.ORG API,2022-11-30T17:18:05,18 SPCS,STARLINK-1038,2019-074AG,EARTH,TEME,UTC,SGP4,2022-11-30T07:48:30.018816,15.06396817,0.0001614,53.054,192.8239,67.1525,292.9635,0,U,44743,999,16811,0.0001777,2.366e-05,0.0,6925.358,95.592,548.341,546.106,PAYLOAD,LARGE,US,2019-11-11,AFETR,,0,3675646,219171803,0 STARLINK-1038,1 44743U 19074AG  22334.32534744  .00002366  00000-0  17770-3 0  9991,2 44743  53.0540 192.8239 0001614  67.1525 292.9635 15.06396817168112,549.5626829224911,39.18255150074676,-104.89549995675291,7.592694791544313,5eed7714096e590006985664
2.0,GENERATED VIA SPACE-TRACK.ORG API,2022-11-30T17:18:05,18 SPCS,STARLINK-1042,2019-074AL,EARTH,TEME,UTC,SGP4,2022-11-30T08:25:39.722016,15.06389452,0.0001902,53.0536,192.7045,59.6699,300.4478,0,U,44747,999,16803,3.8865e-05,2.97e-06,0.0,6925.381,95.593,548.563,545.929,PAYLOAD,LARGE,US,2019-11-11,AFETR,,0,3675646,219171553,0 STARLINK-1042,1 44747U 19074AL  22334.35115419  .00000297  00000-0  38865-4 0  9992,2 44747  53.0536 192.7045 0001902  59.6699 300.4478 15.06389452168031,566.8383214861906,-53.15856020358091,130.84188249877525,7.576915092746176,5eed7714096e590006985665
2.0,GENERATED VIA SPACE-TRACK.ORG API,2022-11-30T17:18:05,18 SPCS,STARLINK-1031,2019-074Z,EARTH,TEME,UTC,SGP4,2022-11-30T06:10:18.123744,15.06403104,0.0001643,53.0527,173.1348,67.3434,292.7729,0,U,44736,999,16829,0.00019614,2.641e-05,0.0,6925.339,95.592,548.342,546.066,PAYLOAD,LARGE,US,2019-11-11,AFETR,,0,3675646,219172052,0 STARLINK-1031,1 44736U 19074Z   22334.25715421  .00002641  00000-0  19614-3 0  9993,2 44736  53.0527 173.1348 0001643  67.3434 292.7729 15.06403104168294,550.7689774465471,45.05813653890257,-113.906157954079,7.592682335038101,5eed7714096e590006985666
2.0,GENERATED VIA SPACE-TRACK.ORG API,2021-08-17T16:26:09,18 SPCS,STARLINK-1025,2019-074T,EARTH,TEME,UTC,SGP4,2021-08-16T01:41:34.898784,16.34730305,0.0017884,53.0025,74.0491,283.4374,221.2305,0,U,44730,999,9818,0.0050012,0.40169601,1.2289e-05,6557.995,88.088,191.589,168.132,PAYLOAD,LARGE,US,2019-11-11,AFETR,2021-08-17,1,3098384,182901574,0 STARLINK-1025,1 44730U 19074T   21228.07054281  .40169601  12289-4  50012-2 0  9994,2 44730  53.0025  74.0491 0017884 283.4374 221.2305 16.34730305 98182,,,,,5eed7714096e590006985667
2.0,GENERATED VIA SPACE-TRACK.ORG API,2022-11-30T17:18:05,18 SPCS,STARLINK-1030,2019-074Y,EARTH,TEME,UTC,SGP4,2022-11-30T13:46:46.495200,15.06410686,0.0002241,53.0545,171.7144,36.6187,323.4955,0,U,44735,999,16833,-4.4336e-05,-9.42e-06,0.0,6925.316,95.591,548.733,545.629,PAYLOAD,LARGE,US,2019-11-11,AFETR,,0,3675646,219171802,0 STARLINK-1030,1 44735U 19074Y   22334.57414925 -.00000942  00000-0 -44336-4 0  9996,2 44735  53.0545 171.7144 0002241  36.6187 323.4955 15.06410686168331,549.1968497683947,29.51989926445978,-7.507407298853765,7.591049644708978,5eed7714096e590006985668
2.0,GENERATED VIA SPACE-TRACK.ORG API,2022-11-30T17:18:05,18 SPCS,STARLINK-1041,2019-074AK,EARTH,TEME,UTC,SGP4,2022-11-29T22:09:57.623904,15.06390361,0.0001835,53.0535,194.6317,57.8061,302.3106,0,U,44746,999,16796,5.0059e-05,4.64e-06,0.0,6925.378,95.593,548.514,545.972,PAYLOAD,LARGE,US,2019-11-11,AFETR,,0,3675646,219172801,0 STARLINK-1041,1 44746U 19074AK  22333.92358361  .00000464  00000-0  50059-4 0  9993,2 44746  53.0535 194.6317 0001835  57.8061 302.3106 15.06390361167961,551.7399319596379,49.62339795530369,-80.86224327032542,7.5926718670833155,5eed7714096e590006985669
2.0,GENERATED VIA SPACE-TRACK.ORG API,2020-09-02T19:16:09,18 SPCS,STARLINK-1040,2019-074AJ,EARTH,TEME,UTC,SGP4,2020-09-02T18:35:47.421888,16.52708336,0.0006885,52.9611,104.7789,265.0997,95.3587,0,U,44745,999,4707,0.00015628,0.21998659,1.2712e-05,6510.35,87.129,136.697,127.733,PAYLOAD,LARGE,US,2019-11-11,AFETR,2020-09-03,1,2813122,160602541,0 STARLINK-1040,1 44745U 19074AJ  20246.77485442  .21998659  12712-4  15628-3 0  9991,2 44745  52.9611 104.7789 0006885 265.0997  95.3587 16.52708336 47077,,,,,5eed7714096e59000698566a
2.0,GENERATED VIA SPACE-TRACK.ORG API,2022-11-30T17:18:05,18 SPCS,STARLINK-1056,2019-074BA,EARTH,TEME,UTC,SGP4,2022-11-30T00:33:15.719040,15.06396008,0.0001855,53.0539,194.189,60.5795,299.5379,0,U,44761,999,16798,0.00018419,2.463e-05,0.0,6925.361,95.592,548.51,545.941,PAYLOAD,LARGE,US,2019-11-11,AFETR,,0,3675646,219172555,0 STARLINK-1056,1 44761U 19074BA  22334.02309860  .00002463  00000-0  18419-3 0  9996,2 44761  53.0539 194.1890 0001855  60.5795 299.5379 15.06396008167985,565.5782732742609,-49.66270781781265,99.28932689858365,7.577506404210061,5eed7714096e59000698566b
2.0,GENERATED VIA SPACE-TRACK.ORG API,2022-11-30T17:18:05,18 SPCS,STARLINK-1036,2019-074AE,EARTH,TEME,UTC,SGP4,2022-11-30T12:59:00.283200,15.06404412,0.0002079,53.0535,171.8559,69.7746,290.3466,0,U,44741,999,16833,0.00013444,1.722e-05,0.0,6925.335,95.592,548.64,545.76,PAYLOAD,LARGE,US,2019-11-11,AFETR,,0,3675646,219172300,0 STARLINK-1036,1 44741U 19074AE  22334.54097550  .00001722  00000-0  13444-3 0  9991,2 44741  53.0535 171.8559 0002079  69.7746 290.3466 15.06404412168334,556.6361234978249,-29.66131976094915,172.32939132294607,7.582932996316468,5eed7714096e59000698566c
2.0,GENERATED VIA SPACE-TRACK.ORG API,2022-11-30T17:18:05,18 SPCS,STARLINK-1054,2019-074AY,EARTH,TEME,UTC,SGP4,2022-11-30T11:47:20.054112,15.06403639,0.0001414,53.0542,192.0792,83.8678,276.2472,0,U,44759,999,16569,0.00014811,1.925e-05,0.0,6925.337,95.592,548.182,546.223,PAYLOAD,LARGE,US,2019-11-11,AFETR,,0,3675646,219171554,0 STARLINK-1054,1 44759U 19074AY  22334.49120433  .00001925  00000-0  14811-3 0  9995,2 44759  53.0542 192.0792 0001414  83.8678 276.2472 15.06403639165694,560.8856236141455,-39.30626616150951,75.29948437311778,7.580305711191954,5eed7714096e59000698566d
2.0,GENERATED VIA SPACE-TRACK.ORG API,2022-11-30T17:18:05,18 SPCS,STARLINK-1048,2019-074AS,EARTH,TEME,UTC,SGP4,2022-11-30T05:19:52.656672,15.06400303,0.0001583,53.0544,153.2907,68.0115,292.1042,0,U,44753,999,16856,0.00010823,1.331e-05,0.0,6925.348,95.592,548.309,546.116,PAYLOAD,LARGE,US,2019-11-11,AFETR,,0,3675646,219171053,0 STARLINK-1048,1 44753U 19074AS  22334.22213723  .00001331  00000-0  10823-3 0  9995,2 44753  53.0544 153.2907 0001583  68.0115 292.1042 15.06400303168569,565.402203218352,-49.668658974343494,59.305405568514175,7.577696957731932,5eed7714096e59000698566e
2.0,GENERATED VIA SPACE-TRACK.ORG API,2022-11-30T17:18:05,18 SPCS,STARLINK-1057,2019-074BB,EARTH,TEME,UTC,SGP4,2022-11-30T06:58:05.287872,15.0639678,0.0001398,53.0523,172.9827,84.6181,275.4967,0,U,44762,999,16829,0.00022115,3.014e-05,0.0,6925.358,95.592,548.192,546.255,PAYLOAD,LARGE,US,2019-11-11,AFETR,,0,3675646,219172302,0 STARLINK-1057,1 44762U 19074BB  22334.29033898  .00003014  00000-0  22115-3 0  9992,2 44762  53.0523 172.9827 0001398  84.6181 275.4967 15.06396780168299,563.336798884432,-45.07336504815198,66.12675385330687,7.578926423833618,5eed7714096e59000698566f
2.0,GENERATED VIA SPACE-TRACK.ORG API,2021-12-20T10:36:10,18 SPCS,STARLINK-1051,2019-074AV,EARTH,TEME,UTC,SGP4,2021-12-20T07:28:52.301280,16.29058133,0.0005448,53.0268,163.8503,326.1844,36.6435,0,U,44756,999,11811,0.0026442,0.11367391,1.2138e-05,6573.209,88.395,198.655,191.493,PAYLOAD,LARGE,US,2019-11-11,AFETR,2021-12-20,1,3245080,192049533,0 STARLINK-1051,1 44756U 19074AV  21354.31171645  .11367391  12138-4  26442-2 0  9990,2 44756  53.0268 163.8503 0005448 326.1844  36.6435 16.29058133118114,,,,,5eed7714096e590006985670
2.0,GENERATED VIA SPACE-TRACK.ORG API,2021-04-23T06:26:11,18 SPCS,STARLINK-1045,2019-074AP,EARTH,TEME,UTC,SGP4,2021-04-23T05:08:44.547936,16.38218237,0.0004785,52.9635,168.4884,272.2723,87.9233,0,U,44750,999,8171,0.0025431,0.2828106,1.2321e-05,6548.684,87.9,173.682,167.415,PAYLOAD,LARGE,US,2019-11-11,AFETR,2021-04-23,1,3023445,175976100,0 STARLINK-1045,1 44750U 19074AP  21113.21440449  .28281060  12321-4  25431-2 0  9994,2 44750  52.9635 168.4884 0004785 272.2723  87.9233 16.38218237 81710,,,,,5eed7714096e590006985671
2.0,GENERATED VIA SPACE-TRACK.ORG API,2022-11-30T17:18:05,18 SPCS,STARLINK-1046,2019-074AQ,EARTH,TEME,UTC,SGP4,2022-11-30T14:15:57.903552,15.06395187,0.000173,53.0537,191.6237,55.5922,304.523,0,U,44751,999,16806,8.0964e-05,9.24e-06,0.0,6925.363,95.592,548.426,546.03,PAYLOAD,LARGE,US,2019-11-11,AFETR,,0,3675646,219172554,0 STARLINK-1046,1 44751U 19074AQ  22334.59442018  .00000924  00000-0  80964-4 0  9995,2 44751  53.0537 191.6237 0001730  55.5922 304.5230 15.06395187168067,547.1242666425578,25.150718957267785,-121.89141649692101,7.592541042902083,5eed7714096e590006985672
2.0,GENERATED VIA SPACE-TRACK.ORG API,2022-11-30T17:18:05,18 SPCS,STARLINK-1060,2019-074BE,EARTH,TEME,UTC,SGP4,2022-11-30T13:41:29.371776,15.06345663,0.0001615,53.0537,171.7249,84.2006,275.9167,0,U,44765,999,16833,0.00088809,0.00012952,0.0,6925.515,95.596,548.499,546.262,PAYLOAD,LARGE,US,2019-11-11,AFETR,,0,3675646,219172055,0 STARLINK-1060,1 44765U 19074BE  22334.57047884  .00012952  00000-0  88809-3 0  9999,2 44765  53.0537 171.7249 0001615  84.2006 275.9167 15.06345663168332,547.2690180829204,14.353712282970582,6.508225562183936,7.590916091106688,5eed7714096e590006985673
